NORAD_CAT_ID,OBJECT_NAME,OBJECT_TYPE,EPOCH,MEAN_MOTION,ECCENTRICITY,INCLINATION,RA_OF_ASC_NODE,ARG_OF_PERICENTER,MEAN_ANOMALY,BSTAR,MEAN_MOTION_DOT,MEAN_MOTION_DDOT,TLE_LINE0,TLE_LINE1,TLE_LINE2,SEMIMAJOR_AXIS,PERIOD,APOGEE,PERIGEE,DECAYED
53842.0,STARLINK-4754,PAYLOAD,2022-11-27 14:00:01,15.50982108,0.0001047,53.2173,275.3743,86.7233,108.6883,-0.018846,-0.01014278,0.0,0 STARLINK-4754,1 53842U 22114AA  22331.58334491 -.01014278  00000-0 -18846-1 0  9993,2 53842  53.2173 275.3743 0001047  86.7233 108.6883 15.50982108 11518,6791.994000000002,92.844,414.57,413.148,0.0
53842.0,STARLINK-4754,PAYLOAD,2022-11-27 22:00:00,15.50184072,0.0001128,53.2166,273.7791,88.745,168.44,-0.0076947,-0.00419016,0.0,0 STARLINK-4754,1 53842U 22114AA  22331.91667824 -.00419016  00000-0 -76947-2 0  9994,2 53842  53.2166 273.7791 0001128  88.7450 168.4400 15.50184072  1307,6794.325,92.892,416.957,415.424,0.0
53842.0,STARLINK-4754,PAYLOAD,2022-11-28 00:00:00,15.50006191,0.000112,53.217,273.3813,91.6564,270.8655,-0.0033929,-0.00189245,0.0,0 STARLINK-4754,1 53842U 22114AA  22332.00001157 -.00189245  00000-0 -33929-2 0  9997,2 53842  53.2170 273.3813 0001120  91.6564 270.8655 15.50006191 11579,6794.845,92.903,417.471,415.949,0.0
53842.0,STARLINK-4754,PAYLOAD,2022-11-28 08:00:01,15.50003475,8.68e-05,53.2144,271.7902,71.1453,352.3339,-0.0028804,-0.00161277,0.0,0 STARLINK-4754,1 53842U 22114AA  22332.33334491 -.00161277  00000-0 -28804-2 0  9994,2 53842  53.2144 271.7902 0000868  71.1453 352.3339 15.50003475 11633,6794.853,92.903,417.3080000000001,416.128,0.0
53842.0,STARLINK-4754,PAYLOAD,2022-11-28 16:00:00,15.49838,0.0001047,53.2163,270.1947,83.1667,41.3415,-0.01271,-0.00662614,0.0,0 STARLINK-4754,1 53842U 22114AA  22332.66667824 -.00662614  00000-0 -12710-1 0  9998,2 53842  53.2163 270.1947 0001047  83.1667  41.3415 15.49838000 11689,6795.337,92.913,417.913,416.49,0.0
53842.0,STARLINK-4754,PAYLOAD,2022-11-28 22:00:01,15.494602300000002,0.000136,53.2166,268.9995,85.4893,354.6214,-0.017587,-0.00905676,0.0,0 STARLINK-4754,1 53842U 22114AA  22332.91668981 -.00905676  00000-0 -17587-1 0  9996,2 53842  53.2166 268.9995 0001360  85.4893 354.6214 15.49460230 11722,6796.441,92.936,419.23,417.382,0.0
53842.0,STARLINK-4754,PAYLOAD,2022-11-29 06:00:00,15.48853936,0.0001203,53.217,267.4105,86.2318,53.8134,-0.024104,-0.01201771,0.0,0 STARLINK-4754,1 53842U 22114AA  22333.25001157 -.01201771  00000-0 -24104-1 0  9999,2 53842  53.2170 267.4105 0001203  86.2318  53.8134 15.48853936 11773,6798.215,92.972,420.897,419.262,0.0
53842.0,STARLINK-4754,PAYLOAD,2022-11-29 14:00:01,15.48005252,0.0001261,53.2172,265.819,79.9093,119.3448,-0.023797,-0.01155768,0.0,0 STARLINK-4754,1 53842U 22114AA  22333.58335648 -.01155768  00000-0 -23797-1 0  9991,2 53842  53.2172 265.8190 0001261  79.9093 119.3448 15.48005252  1308,6800.699000000001,93.023,423.422,421.706,0.0
53842.0,STARLINK-4754,PAYLOAD,2022-11-29 22:00:00,15.47205992,0.0001171,53.2169,264.2313,87.7893,169.5398,-0.024901,-0.01174237,0.0,0 STARLINK-4754,1 53842U 22114AA  22333.91667824 -.01174237  00000-0 -24901-1 0  9992,2 53842  53.2169 264.2313 0001171  87.7893 169.5398 15.47205992 11875,6803.041,93.071,425.703,424.109,0.0
53842.0,STARLINK-4754,PAYLOAD,2022-11-30 14:00:01,15.45555189,0.0001036,53.2175,261.0619,80.4008,290.3655,-0.025601,-0.0114284,0.0,0 STARLINK-4754,1 53842U 22114AA  22334.58335648 -.01142840  00000-0 -25601-1 0  9995,2 53842  53.2175 261.0619 0001036  80.4008 290.3655 15.45555189  1304,6807.884,93.17,430.455,429.044,0.0
53842.0,STARLINK-4754,PAYLOAD,2022-11-30 22:00:00,15.44743103,0.0001143,53.2177,259.4808,75.0844,350.8301,-0.026385,-0.0114519,0.0,0 STARLINK-4754,1 53842U 22114AA  22334.91667824 -.01145190  00000-0 -26385-1 0  9997,2 53842  53.2177 259.4808 0001143  75.0844 350.8301 15.44743103  1308,6810.27,93.219,432.913,431.357,0.0
53842.0,STARLINK-4754,PAYLOAD,2022-12-01 06:00:00,15.43924084,0.0001264,53.2173,257.9023,70.0593,50.0921,-0.026898,-0.01136062,0.0,0 STARLINK-4754,1 53842U 22114AA  22335.25001157 -.01136062  00000-0 -26898-1 0  9993,2 53842  53.2173 257.9023 0001264  70.0593  50.0921 15.43924084 12088,6812.678000000001,93.269,435.404,433.682,0.0
53842.0,STARLINK-4754,PAYLOAD,2022-12-01 14:00:01,15.43112636,0.0001279,53.2174,256.3225,97.5829,75.8268,-0.027743,-0.0113953,0.0,0 STARLINK-4754,1 53842U 22114AA  22335.58334491 -.01139530  00000-0 -27743-1 0  9992,2 53842  53.2174 256.3225 0001279  97.5829  75.8268 15.43112636  1302,6815.066,93.318,437.80300000000005,436.06,0.0
53842.0,STARLINK-4754,PAYLOAD,2022-12-01 22:00:00,15.42338861,0.0001281,53.2166,254.7468,99.9131,125.7574,-0.029991,-0.01194669,0.0,0 STARLINK-4754,1 53842U 22114AA  22335.91667824 -.01194669  00000-0 -29991-1 0  9999,2 53842  53.2166 254.7468 0001281  99.9131 125.7574 15.42338861 12181,6817.346,93.365,440.084,438.337,0.0
53842.0,STARLINK-4754,PAYLOAD,2022-12-02 14:00:01,15.40670756,0.0001101,53.2174,251.6006,98.7617,228.5549,-0.030087,-0.01138397,0.0,0 STARLINK-4754,1 53842U 22114AA  22336.58334491 -.01138397  00000-0 -30087-1 0  9998,2 53842  53.2174 251.6006 0001101  98.7617 228.5549 15.40670756  1307,6822.265,93.466,444.882,443.379,0.0
53842.0,STARLINK-4754,PAYLOAD,2022-12-02 16:00:00,15.40468048,0.0001111,53.2173,251.2075,89.0423,340.7028,-0.030342,-0.01140152,0.0,0 STARLINK-4754,1 53842U 22114AA  22336.66667824 -.01140152  00000-0 -30342-1 0  9992,2 53842  53.2173 251.2075 0001111  89.0423 340.7028 15.40468048 12307,6822.864000000001,93.478,445.487,443.971,0.0
53842.0,STARLINK-4754,PAYLOAD,2022-12-02 22:00:00,15.39892846,0.000111,53.2167,250.0306,101.5493,275.0959,-0.032311,-0.01186619,0.0,0 STARLINK-4754,1 53842U 22114AA  22336.91667824 -.01186619  00000-0 -32311-1 0  9996,2 53842  53.2167 250.0306 0001110 101.5493 275.0959 15.39892846  1306,6824.563,93.513,447.185,445.67,0.0
53842.0,STARLINK-4754,PAYLOAD,2022-12-03 14:00:01,15.38236813,0.0001239,53.217,246.8961,86.0107,26.4087,-0.032916,-0.01148172,0.0,0 STARLINK-4754,1 53842U 22114AA  22337.58334491 -.01148172  00000-0 -32916-1 0  9994,2 53842  53.2170 246.8961 0001239  86.0107  26.4087 15.38236813 12443,6829.46,93.614,452.171,450.479,0.0
53842.0,STARLINK-4754,PAYLOAD,2022-12-03 22:00:00,15.37454223,0.0001249,53.2168,245.3321,93.2647,65.5521,-0.035127,-0.01190178,0.0,0 STARLINK-4754,1 53842U 22114AA  22337.91667824 -.01190178  00000-0 -35127-1 0  9990,2 53842  53.2168 245.3321 0001249  93.2647  65.5521 15.37454223  1300,6831.776999999999,93.661,454.496,452.789,0.0
53842.0,STARLINK-4754,PAYLOAD,2022-12-04 14:00:01,15.35786928,0.0001226,53.2173,242.2088,87.8111,160.9177,-0.035211,-0.01135256,0.0,0 STARLINK-4754,1 53842U 22114AA  22338.58334491 -.01135256  00000-0 -35211-1 0  9995,2 53842  53.2173 242.2088 0001226  87.8111 160.9177 15.35786928 12590,6836.721,93.763,459.424,457.74800000000016,0.0
53842.0,STARLINK-4754,PAYLOAD,2022-12-04 22:00:00,15.350077800000005,0.000123,53.217,240.6509,107.4563,184.734,-0.037717,-0.01181387,0.0,0 STARLINK-4754,1 53842U 22114AA  22338.91667824 -.01181387  00000-0 -37717-1 0  9990,2 53842  53.2170 240.6509 0001230 107.4563 184.7340 15.35007780  1307,6839.034000000002,93.811,461.741,460.0580000000001,0.0
53842.0,STARLINK-4754,PAYLOAD,2022-12-05 06:00:00,15.34179219,0.0001079,53.2166,239.0954,84.4344,250.264,-0.037994,-0.0116081,0.0,0 STARLINK-4754,1 53842U 22114AA  22339.25001157 -.01160810  00000-0 -37994-1 0  9994,2 53842  53.2166 239.0954 0001079  84.4344 250.2640 15.34179219 12692,6841.496999999999,93.861,464.1,462.62300000000016,0.0
53842.0,STARLINK-4754,PAYLOAD,2022-12-05 14:00:01,15.33362393,0.0001076,53.217,237.539,78.17699999999998,298.1119,-0.038867,-0.01157289,0.0,0 STARLINK-4754,1 53842U 22114AA  22339.58335648 -.01157289  00000-0 -38867-1 0  9991,2 53842  53.2170 237.5390 0001076  78.1770 298.1119 15.33362393  1308,6843.926,93.911,466.527,465.055,0.0
53842.0,STARLINK-4754,PAYLOAD,2022-12-05 22:00:01,15.32534596,0.0001199,53.2176,235.9876,72.619,344.2224,-0.03921,-0.01139007,0.0,0 STARLINK-4754,1 53842U 22114AA  22339.91668981 -.01139007  00000-0 -39210-1 0  9998,2 53842  53.2176 235.9876 0001199  72.6190 344.2224 15.32534596  1301,6846.39,93.962,469.076,467.434,0.0
53842.0,STARLINK-4754,PAYLOAD,2022-12-06 08:00:01,15.31521598,0.000128,53.2169,234.0491,83.1027,112.9805,-0.040716,-0.01145018,0.0,0 STARLINK-4754,1 53842U 22114AA  22340.33334491 -.01145018  00000-0 -40716-1 0  9994,2 53842  53.2169 234.0491 0001280  83.1027 112.9805 15.31521598 12868,6849.409000000002,94.024,472.151,470.397,0.0
53842.0,STARLINK-4754,PAYLOAD,2022-12-06 14:00:01,15.30914666,0.0001345,53.2171,232.8866,70.1536,64.8431,-0.041677,-0.01149521,0.0,0 STARLINK-4754,1 53842U 22114AA  22340.58335648 -.01149521  00000-0 -41677-1 0  9996,2 53842  53.2171 232.8866 0001345  70.1536  64.8431 15.30914666  1304,6851.219,94.061,474.006,472.163,0.0
53842.0,STARLINK-4754,PAYLOAD,2022-12-06 22:00:00,15.30123714,0.0001361999999999,53.2171,231.3404,100.835,71.6978,-0.043911,-0.01178697,0.0,0 STARLINK-4754,1 53842U 22114AA  22340.91667824 -.01178697  00000-0 -43911-1 0  9996,2 53842  53.2171 231.3404 0001362 100.8350  71.6978 15.30123714  1308,6853.58,94.11,476.378,474.511,0.0
53842.0,STARLINK-4754,PAYLOAD,2022-12-07 08:00:01,15.29081378,0.0001171,53.2172,229.4096,84.0147,224.171,-0.043966,-0.01145696,0.0,0 STARLINK-4754,1 53842U 22114AA  22341.33334491 -.01145696  00000-0 -43966-1 0  9997,2 53842  53.2172 229.4096 0001171  84.0147 224.1710 15.29081378 13016,6856.694,94.174,479.362,477.756,0.0
53842.0,STARLINK-4754,PAYLOAD,2022-12-08 00:00:00,15.27449692,0.000116,53.2173,226.3268,90.5323,287.5009,-0.045932,-0.01138901,0.0,0 STARLINK-4754,1 53842U 22114AA  22342.00001157 -.01138901  00000-0 -45932-1 0  9998,2 53842  53.2173 226.3268 0001160  90.5323 287.5009 15.27449692  1308,6861.576,94.275,484.237,482.645,0.0
